{"fetched_at":"2026-03-29T02:12:04Z","count":15717,"tles":[{"name":"KUIPER-00215","line1":"1 67779U 26030R   26087.40453102  .00028418  00000+0  82871-3 0  9990","line2":"2 67779  51.8842 129.2672 0010364 118.2797 241.9236 15.35089765  7962","category":"Other"}]}