{
  "norad_id": 67779,
  "name": "KUIPER-00215",
  "history": [
    {
      "epoch": "2026-03-28T09:42:31.480128Z",
      "apogee_km": 467.74221932067667,
      "perigee_km": 453.56554260026314,
      "latitude_deg": -1.360591559625577e-06,
      "longitude_deg": 157.81057203760898,
      "height_km": 464.7589441461114,
      "semi_major_axis_km": 6838.79088096047,
      "eccentricity": 0.00103649,
      "inclination_deg": 51.8842,
      "raan_deg": 129.2672,
      "arg_perigee_deg": 118.2797,
      "mean_anomaly_deg": 241.9236,
      "mean_motion_rev_day": 15.35089765
    }
  ]
}